CCSDS_OMM_VERS = 2.0
CREATION_DATE  = 
ORIGINATOR     = 

OBJECT_NAME    = STARLINK-36372
OBJECT_ID      = 2026-035L
CENTER_NAME    = EARTH
REF_FRAME      = TEME
TIME_SYSTEM    = UTC
MEAN_ELEMENT_THEORY = SGP/SGP4

EPOCH          = 2026-03-01T06:00:00.999648
MEAN_MOTION    = 16.05396683
ECCENTRICITY   = .00008994
INCLINATION    = 97.2796
RA_OF_ASC_NODE = 351.8971
ARG_OF_PERICENTER = 111.5494
MEAN_ANOMALY   = 225.6066

EPHEMERIS_TYPE = 0
CLASSIFICATION_TYPE = U
NORAD_CAT_ID   = 67889
ELEMENT_SET_NO = 999
REV_AT_EPOCH   = 239
BSTAR          = -.11137707E-2
MEAN_MOTION_DOT = -.773189E-2
MEAN_MOTION_DDOT = .21669482E-3

CCSDS_OMM_VERS = 2.0
CREATION_DATE  = 
ORIGINATOR     = 

OBJECT_NAME    = STARLINK-36363
OBJECT_ID      = 2026-035M
CENTER_NAME    = EARTH
REF_FRAME      = TEME
TIME_SYSTEM    = UTC
MEAN_ELEMENT_THEORY = SGP/SGP4

EPOCH          = 2026-03-01T06:00:00.999648
MEAN_MOTION    = 16.05305199
ECCENTRICITY   = .00009819
INCLINATION    = 97.2799
RA_OF_ASC_NODE = 351.8966
ARG_OF_PERICENTER = 115.8955
MEAN_ANOMALY   = 219.3560

EPHEMERIS_TYPE = 0
CLASSIFICATION_TYPE = U
NORAD_CAT_ID   = 67890
ELEMENT_SET_NO = 999
REV_AT_EPOCH   = 239
BSTAR          = -.11152924E-2
MEAN_MOTION_DOT = -.769988E-2
MEAN_MOTION_DDOT = .21478762E-3

CCSDS_OMM_VERS = 2.0
CREATION_DATE  = 
ORIGINATOR     = 

OBJECT_NAME    = STARLINK-36816
OBJECT_ID      = 2026-035N
CENTER_NAME    = EARTH
REF_FRAME      = TEME
TIME_SYSTEM    = UTC
MEAN_ELEMENT_THEORY = SGP/SGP4

EPOCH          = 2026-03-01T06:00:00.999648
MEAN_MOTION    = 16.07098866
ECCENTRICITY   = .00007622
INCLINATION    = 97.2771
RA_OF_ASC_NODE = 351.9117
ARG_OF_PERICENTER = 108.9178
MEAN_ANOMALY   = 263.8583

EPHEMERIS_TYPE = 0
CLASSIFICATION_TYPE = U
NORAD_CAT_ID   = 67891
ELEMENT_SET_NO = 999
REV_AT_EPOCH   = 229
BSTAR          = -.10090625E-2
MEAN_MOTION_DOT = -.777673E-2
MEAN_MOTION_DDOT = .22374069E-3

CCSDS_OMM_VERS = 2.0
CREATION_DATE  = 
ORIGINATOR     = 

OBJECT_NAME    = STARLINK-36813
OBJECT_ID      = 2026-035P
CENTER_NAME    = EARTH
REF_FRAME      = TEME
TIME_SYSTEM    = UTC
MEAN_ELEMENT_THEORY = SGP/SGP4

EPOCH          = 2026-03-01T06:00:00.999648
MEAN_MOTION    = 16.06345315
ECCENTRICITY   = .00009338
INCLINATION    = 97.2778
RA_OF_ASC_NODE = 351.9049
ARG_OF_PERICENTER = 126.1749
MEAN_ANOMALY   = 230.7390

EPHEMERIS_TYPE = 0
CLASSIFICATION_TYPE = U
NORAD_CAT_ID   = 67892
ELEMENT_SET_NO = 999
REV_AT_EPOCH   = 239
BSTAR          = -.10651831E-2
MEAN_MOTION_DOT = -.783526E-2
MEAN_MOTION_DDOT = .22473632E-3

CCSDS_OMM_VERS = 2.0
CREATION_DATE  = 
ORIGINATOR     = 

OBJECT_NAME    = STARLINK-36803
OBJECT_ID      = 2026-035Q
CENTER_NAME    = EARTH
REF_FRAME      = TEME
TIME_SYSTEM    = UTC
MEAN_ELEMENT_THEORY = SGP/SGP4

EPOCH          = 2026-03-01T06:00:00.999648
MEAN_MOTION    = 16.05560136
ECCENTRICITY   = .00009538
INCLINATION    = 97.2795
RA_OF_ASC_NODE = 351.8984
ARG_OF_PERICENTER = 123.9988
MEAN_ANOMALY   = 216.1707

EPHEMERIS_TYPE = 0
CLASSIFICATION_TYPE = U
NORAD_CAT_ID   = 67893
ELEMENT_SET_NO = 999
REV_AT_EPOCH   = 239
BSTAR          = -.10971434E-2
MEAN_MOTION_DOT = -.769281E-2
MEAN_MOTION_DDOT = .21509589E-3

CCSDS_OMM_VERS = 2.0
CREATION_DATE  = 
ORIGINATOR     = 

OBJECT_NAME    = STARLINK-36846
OBJECT_ID      = 2026-035R
CENTER_NAME    = EARTH
REF_FRAME      = TEME
TIME_SYSTEM    = UTC
MEAN_ELEMENT_THEORY = SGP/SGP4

EPOCH          = 2026-03-01T06:00:00.999648
MEAN_MOTION    = 16.05836977
ECCENTRICITY   = .00009522
INCLINATION    = 97.2792
RA_OF_ASC_NODE = 351.9009
ARG_OF_PERICENTER = 114.3864
MEAN_ANOMALY   = 231.8975

EPHEMERIS_TYPE = 0
CLASSIFICATION_TYPE = U
NORAD_CAT_ID   = 67894
ELEMENT_SET_NO = 999
REV_AT_EPOCH   = 239
BSTAR          = -.11184157E-2
MEAN_MOTION_DOT = -.797353E-2
MEAN_MOTION_DDOT = .23069506E-3

CCSDS_OMM_VERS = 2.0
CREATION_DATE  = 
ORIGINATOR     = 

OBJECT_NAME    = STARLINK-36866
OBJECT_ID      = 2026-035S
CENTER_NAME    = EARTH
REF_FRAME      = TEME
TIME_SYSTEM    = UTC
MEAN_ELEMENT_THEORY = SGP/SGP4

EPOCH          = 2026-03-01T06:00:00.999648
MEAN_MOTION    = 16.05958314
ECCENTRICITY   = .00008245
INCLINATION    = 97.2789
RA_OF_ASC_NODE = 351.9021
ARG_OF_PERICENTER = 105.1686
MEAN_ANOMALY   = 243.7615

EPHEMERIS_TYPE = 0
CLASSIFICATION_TYPE = U
NORAD_CAT_ID   = 67895
ELEMENT_SET_NO = 999
REV_AT_EPOCH   = 239
BSTAR          = -.11027275E-2
MEAN_MOTION_DOT = -.792046E-2
MEAN_MOTION_DDOT = .22819637E-3

CCSDS_OMM_VERS = 2.0
CREATION_DATE  = 
ORIGINATOR     = 

OBJECT_NAME    = STARLINK-36877
OBJECT_ID      = 2026-035T
CENTER_NAME    = EARTH
REF_FRAME      = TEME
TIME_SYSTEM    = UTC
MEAN_ELEMENT_THEORY = SGP/SGP4

EPOCH          = 2026-03-01T06:00:00.999648
MEAN_MOTION    = 16.05700355
ECCENTRICITY   = .00008386
INCLINATION    = 97.2792
RA_OF_ASC_NODE = 351.8995
ARG_OF_PERICENTER = 100.1473
MEAN_ANOMALY   = 243.2099

EPHEMERIS_TYPE = 0
CLASSIFICATION_TYPE = U
NORAD_CAT_ID   = 67896
ELEMENT_SET_NO = 999
REV_AT_EPOCH   = 239
BSTAR          = -.11288896E-2
MEAN_MOTION_DOT = -.798122E-2
MEAN_MOTION_DDOT = .23072063E-3

CCSDS_OMM_VERS = 2.0
CREATION_DATE  = 
ORIGINATOR     = 

OBJECT_NAME    = STARLINK-36870
OBJECT_ID      = 2026-035U
CENTER_NAME    = EARTH
REF_FRAME      = TEME
TIME_SYSTEM    = UTC
MEAN_ELEMENT_THEORY = SGP/SGP4

EPOCH          = 2026-03-01T06:00:00.999648
MEAN_MOTION    = 16.06123264
ECCENTRICITY   = .00008878
INCLINATION    = 97.2788
RA_OF_ASC_NODE = 351.9031
ARG_OF_PERICENTER = 119.0370
MEAN_ANOMALY   = 232.9311

EPHEMERIS_TYPE = 0
CLASSIFICATION_TYPE = U
NORAD_CAT_ID   = 67897
ELEMENT_SET_NO = 999
REV_AT_EPOCH   = 239
BSTAR          = -.10429118E-2
MEAN_MOTION_DOT = -.756923E-2
MEAN_MOTION_DDOT = .2101845E-3

CCSDS_OMM_VERS = 2.0
CREATION_DATE  = 
ORIGINATOR     = 

OBJECT_NAME    = STARLINK-36810
OBJECT_ID      = 2026-035V
CENTER_NAME    = EARTH
REF_FRAME      = TEME
TIME_SYSTEM    = UTC
MEAN_ELEMENT_THEORY = SGP/SGP4

EPOCH          = 2026-03-01T06:00:00.999648
MEAN_MOTION    = 16.06220153
ECCENTRICITY   = .00007824
INCLINATION    = 97.2786
RA_OF_ASC_NODE = 351.9042
ARG_OF_PERICENTER = 99.5870
MEAN_ANOMALY   = 254.7568

EPHEMERIS_TYPE = 0
CLASSIFICATION_TYPE = U
NORAD_CAT_ID   = 67898
ELEMENT_SET_NO = 999
REV_AT_EPOCH   = 239
BSTAR          = -.10842252E-2
MEAN_MOTION_DOT = -.791356E-2
MEAN_MOTION_DDOT = .22857178E-3

CCSDS_OMM_VERS = 2.0
CREATION_DATE  = 
ORIGINATOR     = 

OBJECT_NAME    = STARLINK-36878
OBJECT_ID      = 2026-035W
CENTER_NAME    = EARTH
REF_FRAME      = TEME
TIME_SYSTEM    = UTC
MEAN_ELEMENT_THEORY = SGP/SGP4

EPOCH          = 2026-03-01T06:00:00.999648
MEAN_MOTION    = 16.06449181
ECCENTRICITY   = .00009502
INCLINATION    = 97.2783
RA_OF_ASC_NODE = 351.9062
ARG_OF_PERICENTER = 130.3973
MEAN_ANOMALY   = 228.6698

EPHEMERIS_TYPE = 0
CLASSIFICATION_TYPE = U
NORAD_CAT_ID   = 67899
ELEMENT_SET_NO = 999
REV_AT_EPOCH   = 239
BSTAR          = -.10646553E-2
MEAN_MOTION_DOT = -.788131E-2
MEAN_MOTION_DDOT = .22749032E-3

CCSDS_OMM_VERS = 2.0
CREATION_DATE  = 
ORIGINATOR     = 

OBJECT_NAME    = STARLINK-36361
OBJECT_ID      = 2026-035X
CENTER_NAME    = EARTH
REF_FRAME      = TEME
TIME_SYSTEM    = UTC
MEAN_ELEMENT_THEORY = SGP/SGP4

EPOCH          = 2026-03-01T06:00:00.999648
MEAN_MOTION    = 16.06572154
ECCENTRICITY   = .00008358
INCLINATION    = 97.2782
RA_OF_ASC_NODE = 351.9074
ARG_OF_PERICENTER = 108.1543
MEAN_ANOMALY   = 253.4895

EPHEMERIS_TYPE = 0
CLASSIFICATION_TYPE = U
NORAD_CAT_ID   = 67900
ELEMENT_SET_NO = 999
REV_AT_EPOCH   = 239
BSTAR          = -.10537454E-2
MEAN_MOTION_DOT = -.785996E-2
MEAN_MOTION_DDOT = .22669933E-3

