STARLINK-36372          
1 67889U 26035L   26060.25001157 -.00773189  21669-3 -11138-2 0  9999
2 67889  97.2796 351.8971 0000899 111.5494 225.6066 16.05396683  2393
STARLINK-36363          
1 67890U 26035M   26060.25001157 -.00769988  21479-3 -11153-2 0  9999
2 67890  97.2799 351.8966 0000981 115.8955 219.3560 16.05305199  2394
STARLINK-36816          
1 67891U 26035N   26060.25001157 -.00777673  22374-3 -10091-2 0  9995
2 67891  97.2771 351.9117 0000762 108.9178 263.8583 16.07098866  2291
STARLINK-36813          
1 67892U 26035P   26060.25001157 -.00783526  22474-3 -10652-2 0  9994
2 67892  97.2778 351.9049 0000933 126.1749 230.7390 16.06345315  2392
STARLINK-36803          
1 67893U 26035Q   26060.25001157 -.00769281  21510-3 -10971-2 0  9991
2 67893  97.2795 351.8984 0000953 123.9988 216.1707 16.05560136  2390
STARLINK-36846          
1 67894U 26035R   26060.25001157 -.00797353  23070-3 -11184-2 0  9993
2 67894  97.2792 351.9009 0000952 114.3864 231.8975 16.05836977  2393
STARLINK-36866          
1 67895U 26035S   26060.25001157 -.00792046  22820-3 -11027-2 0  9996
2 67895  97.2789 351.9021 0000824 105.1686 243.7615 16.05958314  2395
STARLINK-36877          
1 67896U 26035T   26060.25001157 -.00798122  23072-3 -11289-2 0  9998
2 67896  97.2792 351.8995 0000838 100.1473 243.2099 16.05700355  2394
STARLINK-36870          
1 67897U 26035U   26060.25001157 -.00756923  21018-3 -10429-2 0  9995
2 67897  97.2788 351.9031 0000887 119.0370 232.9311 16.06123264  2392
STARLINK-36810          
1 67898U 26035V   26060.25001157 -.00791356  22857-3 -10842-2 0  9996
2 67898  97.2786 351.9042 0000782  99.5870 254.7568 16.06220153  2395
STARLINK-36878          
1 67899U 26035W   26060.25001157 -.00788131  22749-3 -10647-2 0  9997
2 67899  97.2783 351.9062 0000950 130.3973 228.6698 16.06449181  2398
STARLINK-36361          
1 67900U 26035X   26060.25001157 -.00785996  22670-3 -10537-2 0  9997
2 67900  97.2782 351.9074 0000835 108.1543 253.4895 16.06572154  2393
